start=new Date('2022-07-07T00:00:00.000Z').valueOf();
sats=[{"EPHEMERIS_TYPE":"0","OBJECT_NAME":"STARLINK-1762","LAUNCH_DATE":"2020-09-03","INCLINATION":"53.0562","SITE":"AFETR","COUNTRY_CODE":"US","CLASSIFICATION_TYPE":"U","PERIOD":"95.593","NORAD_CAT_ID":"46342","FILE":"3508782","REV_AT_EPOCH":"10202","MEAN_ELEMENT_THEORY":"SGP4","ELEMENT_SET_NO":"999","APOAPSIS":"548.283","REF_FRAME":"TEME","MEAN_MOTION":"15.06380387","RA_OF_ASC_NODE":"281.5679","MEAN_ANOMALY":"292.0677","ECCENTRICITY":"0.00014580","TLE_LINE1":"1 46342U 20062T   22187.58166622  .00002801  00000-0  20696-3 0  9992","GP_ID":"207535989","PERIAPSIS":"546.264","MEAN_MOTION_DOT":"0.00002801","BSTAR":"0.00020696000000","SEMIMAJOR_AXIS":"6925.409","RCS_SIZE":"LARGE","CENTER_NAME":"EARTH","ARG_OF_PERICENTER":"68.0467","TIME_SYSTEM":"UTC","OBJECT_ID":"2020-062T","TLE_LINE2":"2 46342  53.0562 281.5679 0001458  68.0467 292.0677 15.06380387102028","MEAN_MOTION_DDOT":"0.0000000000000","EPOCH":"2022-07-06T13:57:35.961408","OBJECT_TYPE":"PAYLOAD","DECAY_DATE":null},{"TLE_LINE1":"1 46343U 20062U   22187.57613023  .00002145  00000-0  16287-3 0  9996","GP_ID":"207536239","PERIAPSIS":"546.147","REF_FRAME":"TEME","RA_OF_ASC_NODE":"261.6133","MEAN_MOTION":"15.06390810","ECCENTRICITY":"0.00015810","MEAN_ANOMALY":"294.1672","COUNTRY_CODE":"US","PERIOD":"95.593","NORAD_CAT_ID":"46343","CLASSIFICATION_TYPE":"U","FILE":"3508782","REV_AT_EPOCH":"10230","MEAN_ELEMENT_THEORY":"SGP4","ELEMENT_SET_NO":"999","APOAPSIS":"548.337","EPHEMERIS_TYPE":"0","OBJECT_NAME":"STARLINK-1764","LAUNCH_DATE":"2020-09-03","INCLINATION":"53.0537","SITE":"AFETR","DECAY_DATE":null,"MEAN_MOTION_DDOT":"0.0000000000000","OBJECT_TYPE":"PAYLOAD","EPOCH":"2022-07-06T13:49:37.651872","RCS_SIZE":"LARGE","SEMIMAJOR_AXIS":"6925.377","CENTER_NAME":"EARTH","TIME_SYSTEM":"UTC","ARG_OF_PERICENTER":"65.9482","OBJECT_ID":"2020-062U","TLE_LINE2":"2 46343  53.0537 261.6133 0001581  65.9482 294.1672 15.06390810102306","MEAN_MOTION_DOT":"0.00002145","BSTAR":"0.00016287000000"},{"OBJECT_ID":"2020-062V","TLE_LINE2":"2 46344  53.0548 261.8266 0001715  54.1446 305.9702 15.06383752102455","ARG_OF_PERICENTER":"54.1446","TIME_SYSTEM":"UTC","CENTER_NAME":"EARTH","RCS_SIZE":"LARGE","SEMIMAJOR_AXIS":"6925.398","MEAN_MOTION_DOT":"0.00002714","BSTAR":"0.00020112000000","DECAY_DATE":null,"EPOCH":"2022-07-06T12:40:38.039520","OBJECT_TYPE":"PAYLOAD","MEAN_MOTION_DDOT":"0.0000000000000","REV_AT_EPOCH":"10245","MEAN_ELEMENT_THEORY":"SGP4","ELEMENT_SET_NO":"999","APOAPSIS":"548.451","PERIOD":"95.593","CLASSIFICATION_TYPE":"U","NORAD_CAT_ID":"46344","FILE":"3508560","COUNTRY_CODE":"US","SITE":"AFETR","INCLINATION":"53.0548","OBJECT_NAME":"STARLINK-1765","LAUNCH_DATE":"2020-09-03","EPHEMERIS_TYPE":"0","PERIAPSIS":"546.076","GP_ID":"207512754","TLE_LINE1":"1 46344U 20062V   22187.52821805  .00002714  00000-0  20112-3 0  9995","MEAN_ANOMALY":"305.9702","ECCENTRICITY":"0.00017150","RA_OF_ASC_NODE":"261.8266","MEAN_MOTION":"15.06383752","REF_FRAME":"TEME"},{"SITE":"AFETR","INCLINATION":"53.0550","LAUNCH_DATE":"2020-09-03","OBJECT_NAME":"STARLINK-1767","EPHEMERIS_TYPE":"0","ELEMENT_SET_NO":"999","APOAPSIS":"548.253","REV_AT_EPOCH":"10219","MEAN_ELEMENT_THEORY":"SGP4","FILE":"3508560","PERIOD":"95.593","NORAD_CAT_ID":"46345","CLASSIFICATION_TYPE":"U","COUNTRY_CODE":"US","ECCENTRICITY":"0.00014560","MEAN_ANOMALY":"297.4909","RA_OF_ASC_NODE":"281.7938","MEAN_MOTION":"15.06389809","REF_FRAME":"TEME","PERIAPSIS":"546.236","GP_ID":"207512818","TLE_LINE1":"1 46345U 20062W   22187.52911733  .00004877  00000-0  34616-3 0  9992","MEAN_MOTION_DOT":"0.00004877","BSTAR":"0.00034616000000","TLE_LINE2":"2 46345  53.0550 281.7938 0001456  62.6228 297.4909 15.06389809102194","OBJECT_ID":"2020-062W","ARG_OF_PERICENTER":"62.6228","TIME_SYSTEM":"UTC","CENTER_NAME":"EARTH","SEMIMAJOR_AXIS":"6925.380","RCS_SIZE":"LARGE","EPOCH":"2022-07-06T12:41:55.737312","OBJECT_TYPE":"PAYLOAD","MEAN_MOTION_DDOT":"0.0000000000000","DECAY_DATE":null},{"COUNTRY_CODE":"US","REV_AT_EPOCH":"10423","MEAN_ELEMENT_THEORY":"SGP4","ELEMENT_SET_NO":"999","APOAPSIS":"465.901","PERIOD":"93.858","NORAD_CAT_ID":"46346","CLASSIFICATION_TYPE":"U","FILE":"3508782","OBJECT_NAME":"STARLINK-1546","LAUNCH_DATE":"2020-09-03","EPHEMERIS_TYPE":"0","SITE":"AFETR","INCLINATION":"53.0536","TLE_LINE1":"1 46346U 20062X   22187.23594263  .00009664  00000-0  29827-3 0  9993","PERIAPSIS":"460.477","GP_ID":"207536489","MEAN_MOTION":"15.34237378","RA_OF_ASC_NODE":"122.9457","REF_FRAME":"TEME","ECCENTRICITY":"0.00039640","MEAN_ANOMALY":"298.4377","CENTER_NAME":"EARTH","SEMIMAJOR_AXIS":"6841.324","RCS_SIZE":"LARGE","OBJECT_ID":"2020-062X","TLE_LINE2":"2 46346  53.0536 122.9457 0003964  61.7024 298.4377 15.34237378104232","ARG_OF_PERICENTER":"61.7024","TIME_SYSTEM":"UTC","BSTAR":"0.00029827000000","MEAN_MOTION_DOT":"0.00009664","DECAY_DATE":null,"MEAN_MOTION_DDOT":"0.0000000000000","OBJECT_TYPE":"PAYLOAD","EPOCH":"2022-07-06T05:39:45.443232"},{"COUNTRY_CODE":"US","FILE":"3508782","CLASSIFICATION_TYPE":"U","PERIOD":"95.593","NORAD_CAT_ID":"46347","ELEMENT_SET_NO":"999","APOAPSIS":"548.361","MEAN_ELEMENT_THEORY":"SGP4","REV_AT_EPOCH":"10262","EPHEMERIS_TYPE":"0","LAUNCH_DATE":"2020-09-03","OBJECT_NAME":"STARLINK-1547","INCLINATION":"53.0546","SITE":"AFETR","TLE_LINE1":"1 46347U 20062Y   22187.48812590  .00003519  00000-0  25506-3 0  9990","GP_ID":"207536739","PERIAPSIS":"546.115","REF_FRAME":"TEME","MEAN_MOTION":"15.06392017","RA_OF_ASC_NODE":"236.9915","ECCENTRICITY":"0.00016220","MEAN_ANOMALY":"296.0295","SEMIMAJOR_AXIS":"6925.373","RCS_SIZE":"LARGE","CENTER_NAME":"EARTH","ARG_OF_PERICENTER":"64.0861","TIME_SYSTEM":"UTC","TLE_LINE2":"2 46347  53.0546 236.9915 0001622  64.0861 296.0295 15.06392017102628","OBJECT_ID":"2020-062Y","MEAN_MOTION_DOT":"0.00003519","BSTAR":"0.00025506000000","DECAY_DATE":null,"MEAN_MOTION_DDOT":"0.0000000000000","EPOCH":"2022-07-06T11:42:54.077760","OBJECT_TYPE":"PAYLOAD"},{"BSTAR":"0.00051331000000","MEAN_MOTION_DOT":"0.00007372","CENTER_NAME":"EARTH","SEMIMAJOR_AXIS":"6925.349","RCS_SIZE":"LARGE","TLE_LINE2":"2 46348  53.0535 262.0885 0001750  50.0033 310.1110 15.06399775102285","OBJECT_ID":"2020-062Z","TIME_SYSTEM":"UTC","ARG_OF_PERICENTER":"50.0033","MEAN_MOTION_DDOT":"0.0000000000000","EPOCH":"2022-07-06T11:10:24.079872","OBJECT_TYPE":"PAYLOAD","DECAY_DATE":null,"LAUNCH_DATE":"2020-09-03","OBJECT_NAME":"STARLINK-1553","EPHEMERIS_TYPE":"0","SITE":"AFETR","INCLINATION":"53.0535","COUNTRY_CODE":"US","APOAPSIS":"548.426","ELEMENT_SET_NO":"999","REV_AT_EPOCH":"10228","MEAN_ELEMENT_THEORY":"SGP4","FILE":"3508782","PERIOD":"95.592","CLASSIFICATION_TYPE":"U","NORAD_CAT_ID":"46348","RA_OF_ASC_NODE":"262.0885","MEAN_MOTION":"15.06399775","REF_FRAME":"TEME","MEAN_ANOMALY":"310.1110","ECCENTRICITY":"0.00017500","TLE_LINE1":"1 46348U 20062Z   22187.46555648  .00007372  00000-0  51331-3 0  9993","PERIAPSIS":"546.002","GP_ID":"207536991"},{"MEAN_ANOMALY":"298.0600","ECCENTRICITY":"0.00015650","RA_OF_ASC_NODE":"237.1142","MEAN_MOTION":"15.06395564","REF_FRAME":"TEME","PERIAPSIS":"546.143","GP_ID":"207537242","TLE_LINE1":"1 46349U 20062AA  22187.46232115  .00002672  00000-0  19820-3 0  9990","SITE":"AFETR","INCLINATION":"53.0535","OBJECT_NAME":"STARLINK-1575","LAUNCH_DATE":"2020-09-03","EPHEMERIS_TYPE":"0","REV_AT_EPOCH":"10263","MEAN_ELEMENT_THEORY":"SGP4","ELEMENT_SET_NO":"999","APOAPSIS":"548.311","PERIOD":"95.592","NORAD_CAT_ID":"46349","CLASSIFICATION_TYPE":"U","FILE":"3508782","COUNTRY_CODE":"US","EPOCH":"2022-07-06T11:05:44.547360","OBJECT_TYPE":"PAYLOAD","MEAN_MOTION_DDOT":"0.0000000000000","DECAY_DATE":null,"MEAN_MOTION_DOT":"0.00002672","BSTAR":"0.00019820000000","OBJECT_ID":"2020-062AA","TLE_LINE2":"2 46349  53.0535 237.1142 0001565  62.0547 298.0600 15.06395564102631","TIME_SYSTEM":"UTC","ARG_OF_PERICENTER":"62.0547","CENTER_NAME":"EARTH","RCS_SIZE":"LARGE","SEMIMAJOR_AXIS":"6925.362"},{"DECAY_DATE":null,"MEAN_MOTION_DDOT":"0.0000000000000","EPOCH":"2022-07-06T13:25:43.942368","OBJECT_TYPE":"PAYLOAD","SEMIMAJOR_AXIS":"6925.390","RCS_SIZE":"LARGE","CENTER_NAME":"EARTH","TIME_SYSTEM":"UTC","ARG_OF_PERICENTER":"64.4069","TLE_LINE2":"2 46350  53.0563 281.6859 0001402  64.4069 295.7065 15.06386348102020","OBJECT_ID":"2020-062AB","MEAN_MOTION_DOT":"0.00001016","BSTAR":"0.00008709600000","TLE_LINE1":"1 46350U 20062AB  22187.55953637  .00001016  00000-0  87096-4 0  9993","GP_ID":"207535990","PERIAPSIS":"546.284","REF_FRAME":"TEME","MEAN_MOTION":"15.06386348","RA_OF_ASC_NODE":"281.6859","MEAN_ANOMALY":"295.7065","ECCENTRICITY":"0.00014020","COUNTRY_CODE":"US","FILE":"3508782","PERIOD":"95.593","CLASSIFICATION_TYPE":"U","NORAD_CAT_ID":"46350","ELEMENT_SET_NO":"999","APOAPSIS":"548.226","REV_AT_EPOCH":"10202","MEAN_ELEMENT_THEORY":"SGP4","EPHEMERIS_TYPE":"0","LAUNCH_DATE":"2020-09-03","OBJECT_NAME":"STARLINK-1617","INCLINATION":"53.0563","SITE":"AFETR"},{"MEAN_ANOMALY":"295.5752","ECCENTRICITY":"0.00015320","REF_FRAME":"TEME","MEAN_MOTION":"15.06407004","RA_OF_ASC_NODE":"261.9308","GP_ID":"207536240","PERIAPSIS":"546.131","TLE_LINE1":"1 46351U 20062AC  22187.49778509  .00006809  00000-0  47545-3 0  9999","INCLINATION":"53.0533","SITE":"AFETR","EPHEMERIS_TYPE":"0","OBJECT_NAME":"STARLINK-1646","LAUNCH_DATE":"2020-09-03","PERIOD":"95.592","NORAD_CAT_ID":"46351","CLASSIFICATION_TYPE":"U","FILE":"3508782","MEAN_ELEMENT_THEORY":"SGP4","REV_AT_EPOCH":"10230","APOAPSIS":"548.253","ELEMENT_SET_NO":"999","COUNTRY_CODE":"US","EPOCH":"2022-07-06T11:56:48.631776","OBJECT_TYPE":"PAYLOAD","MEAN_MOTION_DDOT":"0.0000000000000","DECAY_DATE":null,"BSTAR":"0.00047545000000","MEAN_MOTION_DOT":"0.00006809","ARG_OF_PERICENTER":"64.5395","TIME_SYSTEM":"UTC","OBJECT_ID":"2020-062AC","TLE_LINE2":"2 46351  53.0533 261.9308 0001532  64.5395 295.5752 15.06407004102300","RCS_SIZE":"LARGE","SEMIMAJOR_AXIS":"6925.327","CENTER_NAME":"EARTH"}];
